#aV2022 12 11  0  0  0.00000000     288 DD+AD WGS84 FIT  NGA
## 2240      0.00000000   300.00000000 59924 0.0000000000000
+   31     1  2  3  4  5  6  7  8  9 10 11 12 13 14 15 16 17
+         18 19 20 21 22 23 24 25 26 27 29 30 31 32  0  0  0
+          0  0  0  0  0  0  0  0  0  0  0  0  0  0  0  0  0
+          0  0  0  0  0  0  0  0  0  0  0  0  0  0  0  0  0
+          0  0  0  0  0  0  0  0  0  0  0  0  0  0  0  0  0
++         2  2  2  2  2  2  2  2  2  2  2  2  2  2  2  2  2
++         2  2  2  2  2  2  2  2  2  2  2  2  2  2  0  0  0
++         0  0  0  0  0  0  0  0  0  0  0  0  0  0  0  0  0
++         0  0  0  0  0  0  0  0  0  0  0  0  0  0  0  0  0
++         0  0  0  0  0  0  0  0  0  0  0  0  0  0  0  0  0
%c cc cc ccc ccc cccc cccc cccc cccc ccccc ccccc ccccc ccccc
%c cc cc ccc ccc cccc cccc cccc cccc ccccc ccccc ccccc ccccc
%f  0.0000000  0.000000000  0.00000000000  0.000000000000000
%f  0.0000000  0.000000000  0.00000000000  0.000000000000000
%i    0    0    0    0      0      0      0      0         0
%i    0    0    0    0      0      0      0      0         0
/*      NGA, ST. LOUIS,MO.                                  
/*   EPHEMERIS COMPUTED FROM 2 DAYS OF DATA                 
/*   EPOCHA v8 SMOOTHER                                     
/*   G2139 IERS2010 SATIGS SATAPC                           
*  2022 12 11 14 10  0.00000000
P  1 -13133.279537  10400.427808  20205.224612    239.208065                    
V  1  -1385.406186 -26366.417557  12810.621274     -0.052384                    
P  2  11248.098277 -14639.816084 -18540.729687   -633.570340                    
V  2   4119.630615  24484.912360 -16084.571678      0.019592                    
P  3 -23347.378438  12184.748998   2847.922140   -375.240927                    
V  3   1951.777280  -4014.563512  31909.229835     -0.001011                    
P  4 -18856.215716   3838.229025 -18352.070685    -70.518943                    
V  4 -19381.774610 -12949.966342  17098.991986      0.070876                    
P  5  21796.609356  -2009.807994 -15296.506491   -107.663697                    
V  5 -14726.274248  12245.366922 -22733.939176     -0.014512                    
P  6   6176.930361  24320.323075  -8509.530336    537.933592                    
V  6  -1616.068412  10936.871903  29918.642512      0.078407                    
P  7  -6753.645116  23063.451961 -10321.743877    275.888588                    
V  7  -3630.028430 -13826.206525 -27884.891908     -0.053509                    
P  8 -24416.730341  -4645.973981   9831.315663    -98.133206                    
V  8 -10083.638633  -7601.361250 -28134.818599     -0.018489                    
P  9  -8377.134479  12962.715772 -21698.419490   -255.136949                    
V  9 -24321.041245 -12573.844201   1839.538508      0.060544                    
P 10   1693.111444 -17173.234522  20260.673268    -15.637285                    
V 10  22125.701623 -12546.439723 -12890.934337     -0.016329                    
P 11  12170.187677  15261.414325 -18019.295217    -55.019154                    
V 11  -2005.969981  22838.246966  17941.641417     -0.072337                    
P 12  24236.563334 -10060.215323   3448.545760   -314.678263                    
V 12  -2928.243031   4582.176920  31569.978359     -0.045193                    
P 13  22857.194166  12969.057218   4317.643623    440.115678                    
V 13   3183.603251   5259.836842 -31185.226787      0.065890                    
P 14  -4594.620602  18120.437375  18828.884127    -69.865473                    
V 14 -21594.141251  10522.219105 -15517.135099      0.062173                    
P 15  24762.954852   1820.574257   9357.704887     -4.989449                    
V 15  10550.300987   7417.102118 -27743.271406      0.032240                    
P 16 -19776.600075  -3819.856513 -17835.199122   -526.273473                    
V 16  19018.480925 -10892.154856 -18608.460772      0.005017                    
P 17   4916.050497  18225.365649  19092.550061    685.083783                    
V 17 -20408.707517 -11318.217889  16523.108567      0.030687                    
P 18   5563.236514 -24431.646580  -8587.562840    -55.034081                    
V 18   2482.932055  10906.529078 -29548.237097     -0.145509                    
P 19  15621.250161  18990.967496  10143.974420    249.104876                    
V 19 -11927.552191  -5784.127138  28292.326641      0.050763                    
P 20  13803.765939   8153.150882 -21124.278519    464.279908                    
V 20 -19826.135801  18285.850448  -6112.989335     -0.024811                    
P 21 -15520.078805    571.517678  22167.963774    154.092923                    
V 21  -3289.480166 -26497.076902   -897.744270     -0.008974                    
P 22 -17487.193696 -18414.959097   8507.345411    382.550420                    
V 22   9810.454232   3564.792551  29181.235339      0.078109                    
P 23  12711.421090 -19156.578230  13172.962163     -0.076694                    
V 23  15137.050599  -7500.958147 -25644.205804      0.006110                    
P 24  14778.545581  -6176.091446  20794.939428     20.549523                    
V 24   3996.514126  27083.354974   5539.261510     -0.172356                    
P 25  19412.989904 -17069.035557  -5706.553055    401.043650                    
V 25   7508.259040  -1093.565888  30690.605533      0.035592                    
P 26 -10475.039063 -11912.867589 -21414.889475    238.144332                    
V 26  22023.318674 -15693.841589  -1715.839132      0.008717                    
P 27 -23349.090216 -13108.775942   -844.390035    155.972898                    
V 27   1725.276999  -1554.038207 -31661.614581     -0.100101                    
P 29  11228.078055 -10254.514478 -21825.836464   -573.283181                    
V 29  23062.911339  15073.891676   4715.007403     -0.026009                    
P 30   1120.702143  26384.728206    855.874883   -535.566629                    
V 30  -3825.738466   1064.249720 -31319.849556      0.006133                    
P 31  -7365.943789 -23232.165918 -10136.351635   -202.937337                    
V 31   2891.298180 -12828.485575  28194.268772     -0.011658                    
P 32  -9137.308262 -18380.531445  17117.673987   -325.995687                    
V 32  19673.453071   8500.540185  19609.234953     -0.131463                    
EOF
